{
  "62197": {
    "noradId": "62197",
    "tle": [
      "1 62197C 24229F   26045.79145833 -.00006571  00000+0 -23805-3 0   454",
      "2 62197  43.0037  40.3799 0001442 273.1179 147.8429 15.27578831    10"
    ]
  },
  "62198": {
    "noradId": "62198",
    "tle": [
      "1 62198C 24229G   26045.79284722 -.00005152  00000+0 -18668-3 0   451",
      "2 62198  43.0004  39.8355 0001366 270.0023  25.0008 15.27573355    11"
    ]
  },
  "62199": {
    "noradId": "62199",
    "tle": [
      "1 62199C 24229H   26045.79076389  .00021144  00000+0  76644-3 0   455",
      "2 62199  43.0036  33.1602 0001547 268.7074 256.3223 15.27531826    15"
    ]
  },
  "62200": {
    "noradId": "62200",
    "tle": [
      "1 62200C 24229J   26045.79145833 -.00004517  00000+0 -16358-3 0   452",
      "2 62200  43.0034  40.1278 0001300 270.6374 256.4345 15.27584106    10"
    ]
  },
  "62201": {
    "noradId": "62201",
    "tle": [
      "1 62201C 24229K   26045.79284722  .00008020  00000+0  29062-3 0   451",
      "2 62201  43.0016  39.6448 0001349 272.2608 100.5817 15.27556569    19"
    ]
  },
  "62202": {
    "noradId": "62202",
    "tle": [
      "1 62202C 24229L   26045.79215278 -.00009140  00000+0 -33105-3 0   451",
      "2 62202  43.0037  40.2746 0001253 267.9748 199.2523 15.27586796    16"
    ]
  },
  "62203": {
    "noradId": "62203",
    "tle": [
      "1 62203C 24229M   26045.79215278  .00019763  00000+0  71638-3 0   455",
      "2 62203  43.0031  40.0386 0001374 267.7080 298.5264 15.27533727    11"
    ]
  },
  "62204": {
    "noradId": "62204",
    "tle": [
      "1 62204C 24229N   26045.79423611  .00021309  00000+0  75728-3 0   451",
      "2 62204  43.0046  40.1254 0000837 263.8176 272.4657 15.28179142    14"
    ]
  },
  "62205": {
    "noradId": "62205",
    "tle": [
      "1 62205C 24229P   26045.78798611 -.00024977  00000+0 -90480-3 0   454",
      "2 62205  43.0036  25.8620 0001507 263.7223  57.5603 15.27598890    15"
    ]
  },
  "62206": {
    "noradId": "62206",
    "tle": [
      "1 62206C 24229Q   26045.81715278  .00003940  00000+0  14270-3 0   455",
      "2 62206  43.0006  39.5577 0001396 268.1829 217.2178 15.27575128    14"
    ]
  },
  "62207": {
    "noradId": "62207",
    "tle": [
      "1 62207C 24229R   26045.81298611 -.00018849  00000+0 -68273-3 0   451",
      "2 62207  43.0041  36.6258 0001251 266.0350 348.5855 15.27597354    19"
    ]
  },
  "62208": {
    "noradId": "62208",
    "tle": [
      "1 62208C 24229S   26045.78659722  .00007908  00000+0  28660-3 0   450",
      "2 62208  43.0021  40.0174 0001537 255.1165 301.8438 15.27552079    18"
    ]
  },
  "62209": {
    "noradId": "62209",
    "tle": [
      "1 62209C 24229T   26045.78729167  .00000459  00000+0  16640-4 0   452",
      "2 62209  43.0020  40.4823 0001465 268.2792  94.3662 15.27574938    15"
    ]
  },
  "62210": {
    "noradId": "62210",
    "tle": [
      "1 62210C 24229U   26045.79284722  .00002743  00000+0  99351-4 0   456",
      "2 62210  43.0006  39.8815 0001309 270.8594   2.8978 15.27576429    11"
    ]
  },
  "62211": {
    "noradId": "62211",
    "tle": [
      "1 62211C 24229V   26045.78868056 -.00016617  00000+0 -60171-3 0   458",
      "2 62211  43.0001  39.8227 0001654 259.5941  26.5820 15.27602771    16"
    ]
  },
  "62212": {
    "noradId": "62212",
    "tle": [
      "1 62212C 24229W   26045.79006944  .00021857  00000+0  79212-3 0   456",
      "2 62212  43.0037  36.8055 0001471 281.6142 185.5981 15.27538453    17"
    ]
  },
  "62213": {
    "noradId": "62213",
    "tle": [
      "1 62213C 24229X   26045.78798611 -.00001576  00000+0 -57058-4 0   458",
      "2 62213  43.0041  40.3457 0001362 269.9316 153.1157 15.27585325    16"
    ]
  },
  "62214": {
    "noradId": "62214",
    "tle": [
      "1 62214C 24229Y   26045.78937500  .00007321  00000+0  26517-3 0   458",
      "2 62214  43.0030  40.4205 0001449 279.6448 115.6935 15.27569565    12"
    ]
  },
  "62215": {
    "noradId": "62215",
    "tle": [
      "1 62215C 24229Z   26045.78659722  .00003729  00000+0  13505-3 0   457",
      "2 62215  43.0035  40.2534 0001408 269.2440 188.6133 15.27576083    16"
    ]
  },
  "62218": {
    "noradId": "62218",
    "tle": [
      "1 62218C 24231A   26045.82270833  .00028207  00000+0  23236-3 0   450",
      "2 62218  53.1561 214.0067 0001269  91.0804 131.4972 15.69680401    10"
    ]
  },
  "62219": {
    "noradId": "62219",
    "tle": [
      "1 62219C 24231B   26045.81784722  .00011555  00000+0  95217-4 0   454",
      "2 62219  53.1565 214.0865 0001259  85.1985  82.1465 15.69688108    15"
    ]
  },
  "62220": {
    "noradId": "62220",
    "tle": [
      "1 62220C 24231C   26045.82409722  .00056097  00000+0  46232-3 0   453",
      "2 62220  53.1564 214.1683 0001121  64.9925  82.2198 15.69641664    12"
    ]
  },
  "62221": {
    "noradId": "62221",
    "tle": [
      "1 62221C 24231D   26045.81784722  .00027382  00000+0  22564-3 0   456",
      "2 62221  53.1567 214.3117 0001047  77.4000 338.9925 15.69673502    15"
    ]
  },
  "62222": {
    "noradId": "62222",
    "tle": [
      "1 62222C 24231E   26045.82270833  .00023670  00000+0  19508-3 0   451",
      "2 62222  53.1565 214.1173 0001036  93.3831  73.7228 15.69672982    12"
    ]
  },
  "62223": {
    "noradId": "62223",
    "tle": [
      "1 62223C 24231F   26045.82201389  .00042865  00000+0  35323-3 0   452",
      "2 62223  53.1565 213.7241 0001098  78.7059 278.6364 15.69657334    12"
    ]
  },
  "62224": {
    "noradId": "62224",
    "tle": [
      "1 62224C 24231G   26045.81784722  .00013907  00000+0  11461-3 0   451",
      "2 62224  53.1567 214.2663 0000960  78.1943   5.9285 15.69683981    12"
    ]
  },
  "62225": {
    "noradId": "62225",
    "tle": [
      "1 62225C 24231H   26045.81993056  .00026635  00000+0  21956-3 0   456",
      "2 62225  53.1563 213.8024 0001332 100.5967 217.2220 15.69664924    18"
    ]
  },
  "62226": {
    "noradId": "62226",
    "tle": [
      "1 62226C 24231J   26045.82409722  .00014133  00000+0  11648-3 0   457",
      "2 62226  53.1561 213.8257 0001089  99.8583 213.7767 15.69683797    14"
    ]
  },
  "62227": {
    "noradId": "62227",
    "tle": [
      "1 62227C 24231K   26045.82201389  .00022994  00000+0  18953-3 0   457",
      "2 62227  53.1561 213.9485 0001066  82.9769 163.4054 15.69671872    14"
    ]
  },
  "62228": {
    "noradId": "62228",
    "tle": [
      "1 62228C 24231L   26045.82201389  .00015332  00000+0  12634-3 0   456",
      "2 62228  53.1567 213.6650 0001154  83.6982 301.3594 15.69686161    14"
    ]
  },
  "62229": {
    "noradId": "62229",
    "tle": [
      "1 62229C 24231M   26045.82270833  .00024095  00000+0  19862-3 0   453",
      "2 62229  53.1559 213.8873 0001182  68.8650 209.1860 15.69668078    11"
    ]
  },
  "62230": {
    "noradId": "62230",
    "tle": [
      "1 62230C 24231N   26045.82201389  .00036467  00000+0  30049-3 0   451",
      "2 62230  53.1569 214.3427 0001040  96.6699 315.5472 15.69664893    12"
    ]
  },
  "62231": {
    "noradId": "62231",
    "tle": [
      "1 62231C 24231P   26045.78937500  .00069773  00000+0  23541-2 0   452",
      "2 62231  53.1594 326.1833 0001588  79.6513 137.8209 15.30087715    10"
    ]
  },
  "62232": {
    "noradId": "62232",
    "tle": [
      "1 62232C 24231Q   26045.79145833  .00021533  00000+0  72552-3 0   453",
      "2 62232  53.1605 325.7426 0001311  87.8145   2.1139 15.30179238    11"
    ]
  },
  "62233": {
    "noradId": "62233",
    "tle": [
      "1 62233C 24231R   26045.78868056  .00013407  00000+0  45187-3 0   457",
      "2 62233  53.1603 313.2158 0001321  89.0095 220.7308 15.30177243    13"
    ]
  },
  "62234": {
    "noradId": "62234",
    "tle": [
      "1 62234C 24231S   26045.78868056  .00024434  00000+0  82354-3 0   457",
      "2 62234  53.1589 326.0000 0001230  89.9927 216.7038 15.30165578    10"
    ]
  },
  "62235": {
    "noradId": "62235",
    "tle": [
      "1 62235C 24231T   26045.78937500  .00021638  00000+0  72936-3 0   457",
      "2 62235  53.1595 313.0529 0001320  90.6189 304.3778 15.30166729    13"
    ]
  },
  "62236": {
    "noradId": "62236",
    "tle": [
      "1 62236C 24231U   26045.78729167  .00011872  00000+0  40013-3 0   456",
      "2 62236  53.1604 313.2540 0001279  93.7461 190.8928 15.30179350    19"
    ]
  },
  "62262": {
    "noradId": "62262",
    "tle": [
      "1 62262C 24231V   26045.79145833  .00016246  00000+0  54754-3 0   455",
      "2 62262  53.1591 326.0896 0001210  91.6797 177.9742 15.30176105    18"
    ]
  },
  "62267": {
    "noradId": "62267",
    "tle": [
      "1 62267C 24237A   26045.81993056 -.00029979  00000+0 -23290-3 0   457",
      "2 62267  43.0004 194.8061 0001588 265.3304  22.9287 15.70863271    11"
    ]
  },
  "62268": {
    "noradId": "62268",
    "tle": [
      "1 62268C 24237B   26045.82270833  .00028090  00000+0  21833-3 0   452",
      "2 62268  43.0005 194.3401 0001620 268.3385 216.0474 15.70793217    11"
    ]
  },
  "62269": {
    "noradId": "62269",
    "tle": [
      "1 62269C 24237C   26045.81715278  .00034117  00000+0  26518-3 0   451",
      "2 62269  43.0004 194.2983 0001504 275.6719 207.3174 15.70787025    18"
    ]
  },
  "62270": {
    "noradId": "62270",
    "tle": [
      "1 62270C 24237D   26045.82131944  .00028501  00000+0  22156-3 0   450",
      "2 62270  43.0006 194.4972 0001478 270.7306 145.6698 15.70790195    17"
    ]
  },
  "62271": {
    "noradId": "62271",
    "tle": [
      "1 62271C 24237E   26045.82201389  .00035858  00000+0  27874-3 0   457",
      "2 62271  43.0002 195.0161 0001592 285.7627 284.1382 15.70783572    10"
    ]
  },
  "62272": {
    "noradId": "62272",
    "tle": [
      "1 62272C 24237F   26045.82270833  .00018824  00000+0  14630-3 0   458",
      "2 62272  43.0004 194.7124 0001641 268.6689  65.3979 15.70803973    10"
    ]
  }
}